ONEWEB-0228             
1 48780U 21045P   23180.78909474  .00000053  00000+0  10612-3 0  9991
2 48780  87.9021 114.9276 0002063  73.5410 286.5946 13.15555255103019
